#aV2021 11  5  0  0  0.00000000     288 DD+AD WGS84 FIT  NGA
## 2182 432000.00000000   300.00000000 59523 0.0000000000000
+   32     1  2  3  4  5  6  7  8  9 10 11 12 13 14 15 16 17
+         18 19 20 21 22 23 24 25 26 27 28 29 30 31 32  0  0
+          0  0  0  0  0  0  0  0  0  0  0  0  0  0  0  0  0
+          0  0  0  0  0  0  0  0  0  0  0  0  0  0  0  0  0
+          0  0  0  0  0  0  0  0  0  0  0  0  0  0  0  0  0
++         2  2  2  2  2  2  2  2  2  2  2  2  2  2  2  2  2
++         2  2  2  2  2  2  2  2  2  2  2  2  2  2  2  0  0
++         0  0  0  0  0  0  0  0  0  0  0  0  0  0  0  0  0
++         0  0  0  0  0  0  0  0  0  0  0  0  0  0  0  0  0
++         0  0  0  0  0  0  0  0  0  0  0  0  0  0  0  0  0
%c cc cc ccc ccc cccc cccc cccc cccc ccccc ccccc ccccc ccccc
%c cc cc ccc ccc cccc cccc cccc cccc ccccc ccccc ccccc ccccc
%f  0.0000000  0.000000000  0.00000000000  0.000000000000000
%f  0.0000000  0.000000000  0.00000000000  0.000000000000000
%i    0    0    0    0      0      0      0      0         0
%i    0    0    0    0      0      0      0      0         0
/*      NGA, ST. LOUIS,MO.                                  
/*   EPHEMERIS COMPUTED FROM 2 DAYS OF DATA                 
/*   EPOCHA v7 SMOOTHER                                     
/*   G2139 IERS2010 SATIGS SATAPC                           
*  2021 11  5  2 20  0.00000000
P  1  11243.008595 -20812.214825 -12000.719421    519.698009                    
V  1  12308.436279  -8590.033961  27371.547010     -0.105836                    
P  2 -20856.479803  13764.057079  -8467.019106   -640.637056                    
V  2   6061.624482 -10260.998103 -29264.232415     -0.016521                    
P  3   3547.002893 -14640.516057 -21983.296302     -5.939939                    
V  3  26384.177790   8182.445605  -1099.923907     -0.084054                    
P  4   1540.206058 -24973.454158  -8802.334803   -202.527904                    
V  4   4683.293346  10513.456616 -29074.977129      0.007468                    
P  5 -18431.798856   7709.021401  17409.384093    -59.996067                    
V  5 -21173.216107  -7456.840899 -18784.313626     -0.012793                    
P  6 -18325.553837   -440.296350 -19176.847446    110.348349                    
V  6  17326.185854 -17216.273127 -16052.777493      0.088646                    
P  7  -3937.481047 -16417.369283  20764.768981    273.360088                    
V  7  19758.920866 -16441.614896  -9911.476162      0.056225                    
P  8   8378.206786 -17650.881899  17827.843852    -42.848932                    
V  8   7087.084100  21710.452876  18466.158891     -0.015383                    
P  9  -7723.542722 -25301.229885   2127.920452   -361.866404                    
V  9   2321.539317  -3443.332117 -31454.650660      0.001140                    
P 10  22999.095811  11894.026867   6695.618938   -239.067814                    
V 10  -8523.201891   -407.405859  30276.623465     -0.083407                    
P 11 -22670.784456   9709.302393  -9849.636545     20.446571                    
V 11   8070.156530  -9868.913916 -28342.310265     -0.010736                    
P 12  -6057.160742  13836.679585 -22097.188898   -121.685163                    
V 12 -25487.949162 -10113.776436    793.060621     -0.055310                    
P 13 -13193.899102  10328.840343  20418.786184    209.848509                    
V 13  -3305.330370 -26098.706974  11133.660844      0.056155                    
P 14 -22379.107834 -12842.471322   6422.283865    -32.373226                    
V 14   8625.225974     88.047263  30173.004606     -0.070965                    
P 15  -6508.266142  19045.343314  16765.513971   -108.830680                    
V 15  -9950.049145 -20112.487342  18879.225337      0.027974                    
P 16  21357.769386  -2699.341611  15606.746155   -418.743659                    
V 16  17961.017276   9077.275200 -22194.914589     -0.063981                    
P 17 -12498.317991 -18404.927692 -14056.041969    529.170892                    
V 17  -1151.893166 -18627.131484  24668.638133      0.054344                    
P 18   4333.929648  15479.751444  21117.702834    300.401635                    
V 18 -20569.312099  17230.039914  -8501.495440     -0.056035                    
P 19 -14713.329747  -9946.431780 -20068.160726     75.053448                    
V 19  -2028.133960 -24728.617532  13764.614915      0.050033                    
P 20 -24911.978276   2446.523817   8450.797288    518.288554                    
V 20 -10233.069732  -5004.573969 -28904.756258     -0.001926                    
P 21  16695.505530 -20065.999929  -2064.136540    150.027865                    
V 21   4874.614409   -236.260910  31950.119363      0.011810                    
P 22  11979.608718 -12526.047943 -19901.596475   -472.468268                    
V 22  25016.976079   6424.512769  11126.740555      0.091123                    
P 23  14362.137276  15579.553902  16044.361942     36.726576                    
V 23 -20079.722029  -3839.798288  21591.039588     -0.044948                    
P 24 -13121.964874  21780.062986  -7170.809512    263.374284                    
V 24  -8781.593435   3956.741785  29615.385977      0.046398                    
P 25   6345.560781  16658.440169 -20040.441499    235.567723                    
V 25 -23981.153236  -6353.097042 -12776.492360      0.060012                    
P 26  26160.747196   4273.412701   3301.504506    152.115345                    
V 26   3311.307067   4152.830890 -30726.088306      0.038664                    
P 27  13422.139470  -7085.942722  21574.039707   -215.196540                    
V 27   6649.044715  27037.129095   5068.384214     -0.047790                    
P 28 -24415.281842 -10136.381950    -89.123832    469.100371                    
V 28    332.580776  -2785.361719  32115.302635     -0.073864                    
P 29   3042.094885  26320.661239  -1259.720801   -436.145839                    
V 29  -2380.465928  -1214.358578 -32221.531024     -0.053886                    
P 30 -13742.679112  -8593.436657  21137.491030   -488.610926                    
V 30  19717.764728 -18072.405223   5253.273893     -0.033109                    
P 31  20169.399135  -1182.283607 -17584.402480   -148.537481                    
V 31 -15540.622833  15574.438079 -18522.575614     -0.019305                    
P 32  15196.982504  14297.685652 -16424.932122    -18.107171                    
V 32   2967.612601  20879.605598  20596.979301     -0.045394                    
EOF
